ORBCOMM-X               
1 21576U 91050C   25100.78134829  .00000807  00000+0  25299-3 0  9990
2 21576  98.3482 168.7393 0004306  46.9429 313.2122 14.43193224772611
ORBCOMM FM01            
1 23545U 95017A   25100.78331624  .00013841  00000+0  14720-2 0  9995
2 23545  69.9631 242.1006 0000950 355.5252   4.5894 14.89079557602824
ORBCOMM FM02            
1 23546U 95017B   25100.82760182  .00013806  00000+0  14467-2 0  9995
2 23546  69.9640 261.5706 0001729  43.1353 316.9936 14.89678013602126
ORBCOMM FM08            
1 25112U 97084A   25100.87405060  .00003541  00000+0  10341-2 0  9990
2 25112  45.0145 330.9396 0005884 270.0790  89.9388 14.45534032431638
ORBCOMM FM10            
1 25113U 97084B   25100.91446301  .00003633  00000+0  10645-2 0  9998
2 25113  45.0159 333.0096 0004114 233.6895 126.3576 14.45322867606787
ORBCOMM FM12            
1 25115U 97084D   25100.87092807  .00003243  00000+0  95909-3 0  9997
2 25115  45.0151 333.4874 0003927 233.0894 126.9597 14.45098172431530
ORBCOMM FM09            
1 25116U 97084E   25100.89758218  .00002992  00000+0  89033-3 0  9996
2 25116  45.0154 334.2266 0005255 219.9270 140.1195 14.44981563431744
